CORVUS BC1              
1 42847U 17042Y   18218.68700291  .00000157  00000-0  20784-4 0  9990
2 42847  97.5922 119.7829 0010188  35.6978 324.4920 14.91938667 57891
SILU-1 (SILKROAD 1)     
1 42903U 17021F   18218.83818874  .00021337  00000-0  14829-3 0  9999
2 42903  42.7786  20.8941 0014605 298.0106 203.0179 15.73826973 57904
MIRATA                  
1 43015U 17073C   18218.79109657  .00000792  00000-0  67090-4 0  9999
2 43015  97.7040 147.6877 0259321 106.6433 256.3419 14.78210940 38611
MAKERSAT 0              
1 43016U 17073D   18218.77590715  .00000514  00000-0  45121-4 0  9990
2 43016  97.7069 147.8082 0260668 106.7781 256.2202 14.78200647 38607
ASTERIA                 
1 43020U 98067NH  18218.75816484  .00009553  00000-0  12095-3 0  9994
2 43020  51.6414 120.1106 0002486  21.0967 339.0128 15.60233105 40385
DELLINGR (RBLE)         
1 43021U 98067NJ  18218.80778542  .00004779  00000-0  68796-4 0  9998
2 43021  51.6403 121.9066 0002234  12.5788 347.5260 15.58117090 40365
OSIRIS-3U               
1 43027U 98067NL  18218.25658958  .00021709  00000-0  20565-3 0  9994
2 43027  51.6371 116.6942 0002203  10.5723 349.5319 15.66877013 40265
AEROCUBE 7B             
1 43042U 17071F   18218.89910298  .00002532  00000-0  74403-4 0  9999
2 43042  51.6386 154.4108 0005725  88.0633 272.1006 15.39125753 37418
AEROCUBE 7C             
1 43043U 17071G   18218.89909555  .00002474  00000-0  72930-4 0  9992
2 43043  51.6389 154.4162 0005807  89.8441 270.3209 15.39125266 37389
CHEFSAT                 
1 43044U 17071H   18218.87569192  .00003789  00000-0  10278-3 0  9996
2 43044  51.6391 153.5387 0005805  87.4770 272.6879 15.40175355 37394
ASGARDIA 1              
1 43049U 17071N   18218.87556890  .00001957  00000-0  59568-4 0  9993
2 43049  51.6390 154.2671 0003188 104.3911 255.7427 15.39250880 37374
ISARA                   
1 43050U 17071P   18218.88317247  .00003733  00000-0  10196-3 0  9994
2 43050  51.6384 153.5818 0003151  99.6319 260.5022 15.40001793 37398
FAUNA                   
1 43052U 17071R   18218.85945154  .00001957  00000-0  59291-4 0  9993
2 43052  51.6393 154.1693 0003122 100.9195 259.2141 15.39398552 37379
CORVUS BC3              
1 43118U 18004H   18218.82167894  .00000542  00000-0  26631-4 0  9998
2 43118  97.5294 281.5033 0008965 279.4454  80.5768 15.22323809 31418
MICROMAS-2A             
1 43131U 18004W   18218.82763152  .00001222  00000-0  55096-4 0  9995
2 43131  97.5304 281.6667 0008092 282.8598  77.1734 15.22961484 31420
GOMX4-B                 
1 43196U 18015E   18218.77818954  .00000400  00000-0  19554-4 0  9999
2 43196  97.3500 346.6843 0018495 344.3350  15.7309 15.23704734 28238
GOMX4-A                 
1 43197U 18015F   18218.86869933  .00000305  00000-0  15617-4 0  9993
2 43197  97.3537 346.7791 0019065 345.1014 171.4543 15.23705496 28250
1KUNS-PF                
1 43466U 98067NP  18218.84233906  .00007686  00000-0  11283-3 0  9993
2 43466  51.6395 125.1305 0000668  75.5147 284.5919 15.56565721 13588
UBAKUSAT                
1 43467U 98067NQ  18218.78437717  .00005746  00000-0  87062-4 0  9997
2 43467  51.6399 125.4961 0002132 336.8960  23.1935 15.56259450 13582
BATSU-CS1 (IRAZU)       
1 43468U 98067NR  18218.83284559  .00009124  00000-0  13120-3 0  9995
2 43468  51.6393 125.0674 0000716  88.3042 271.8032 15.56865188113571
ENDUROSAT ONE           
1 43551U 98067NZ  18218.79639164  .00007188  00000-0  11208-3 0  9992
2 43551  51.6421 126.3127 0007303  53.5236 306.6343 15.55010440  3809
EQUISAT                 
1 43552U 98067PA  18218.79635956  .00006149  00000-0  96996-4 0  9992
2 43552  51.6407 126.3117 0007687  50.9240 309.2360 15.54988142  3770
AEROCUBE 12A            
1 43556U 18046C   18218.73188073  .00000545  00000-0  32780-4 0  9997
2 43556  51.6479 131.0708 0008531  28.7143 331.4301 15.27672638  3240
AEROCUBE 12B            
1 43557U 18046D   18218.79723773  .00000261  00000-0  22458-4 0  9992
2 43557  51.6430 130.7569 0009218  28.0729 332.0669 15.27672288  3206
